55161,ONEWEB-0620,2023,109.81,148.0,+,87.89,Active,1,LEO,USA,UK,Commercial,Communications,Falcon,1 55161U 23004X   24274.03878368  .00000268  00000+0  72079-3 0  9992,2 55161  87.8940 145.6206 0001924  63.5286 296.6039 13.11414575 83891,13.11414575,0.0001924,LEO
55162,ONEWEB-0621,2023,109.8,148.0,+,87.89,Active,1,LEO,USA,UK,Commercial,Communications,Falcon,1 55162U 23004Y   24273.91330119 -.00000379  00000+0 -11057-2 0  9999,2 55162  87.8945 145.6108 0001389  77.0616 283.0667 13.11418867 83851,13.11418867,0.0001389,LEO
55163,ONEWEB-0622,2023,109.8,148.0,+,87.89,Active,1,LEO,USA,UK,Commercial,Communications,Falcon,1 55163U 23004Z   24274.07098244 -.00000234  00000+0 -69521-3 0  9998,2 55163  87.8942 145.5975 0001739  46.6857 313.4415 13.11420160 83878,13.1142016,0.0001739,LEO
55164,ONEWEB-0623,2023,109.28,148.0,+,87.91,Active,1,LEO,USA,UK,Commercial,Communications,Falcon,1 55164U 23004AA  24273.83567336 -.00002370  00000+0 -61378-2 0  9999,2 55164  87.9110 130.4647 0000741  25.5609 334.5559 13.17661160 85237,13.1766116,7.41e-05,LEO
55165,ONEWEB-0624,2023,109.72,148.0,+,87.89,Active,1,LEO,USA,UK,Commercial,Communications,Falcon,1 55165U 23004AB  24273.82132674 -.00000361  00000+0 -10382-2 0  9999,2 55165  87.8863 115.2052 0001481  78.9292 281.2003 13.12443327 86023,13.12443327,0.0001481,LEO
55166,ONEWEB-0625,2023,109.29,148.0,+,87.91,Active,1,LEO,USA,UK,Commercial,Communications,Falcon,1 55166U 23004AC  24273.90150067  .00004848  00000+0  12453-1 0  9997,2 55166  87.9124 130.4503 0001896  89.5924 270.5424 13.17619322 85230,13.17619322,0.0001896,LEO
55167,ONEWEB-0626,2023,109.29,148.0,+,87.91,Active,1,LEO,USA,UK,Commercial,Communications,Falcon,1 55167U 23004AD  24273.89135430  .00002171  00000+0  55587-2 0  9996,2 55167  87.9111 130.4513 0001912  74.4327 285.7015 13.17633032 85235,13.17633032,0.0001912,LEO
55168,ONEWEB-0627,2023,109.29,148.0,+,87.91,Active,1,LEO,USA,UK,Commercial,Communications,Falcon,1 55168U 23004AE  24274.03145102  .00000008  00000+0 -12774-4 0  9992,2 55168  87.9113 130.4254 0001533  58.1688 301.9593 13.17649325 85254,13.17649325,0.0001533,LEO
